{
  "type": "FeatureCollection",
  "features": [
    {
      "type": "Feature",
      "properties": {
        "norad_id": 66523,
        "name": "STARLINK-35969",
        "group": "last-30-days",
        "lat": -29.497169758227066,
        "lon": -121.11546249231093,
        "alt_km": 416.4654523410927,
        "timestamp": "2025-12-18T07:01:53.339480+00:00",
        "meta_object_name": "STARLINK-35969",
        "meta_object_id": "2025-265H",
        "meta_epoch": "2025-12-17T09:57:49.760928",
        "meta_mean_motion": 15.50607296,
        "meta_eccentricity": 0.0005219,
        "meta_inclination": 43.006,
        "meta_ra_of_asc_node": 26.6509,
        "meta_arg_of_pericenter": 296.7394,
        "meta_mean_anomaly": 63.2932,
        "meta_ephemeris_type": 0,
        "meta_classification_type": "U",
        "meta_norad_cat_id": 66523,
        "meta_element_set_no": 999,
        "meta_rev_at_epoch": 448,
        "meta_bstar": 0.0010663267,
        "meta_mean_motion_dot": 0.00062808,
        "meta_mean_motion_ddot": 0,
        "tle_line1": "1 66523U 25265H   25351.41515927  .00062808  00000+0  10663-2 0  9993",
        "tle_line2": "2 66523  43.0060  26.6509 0005219 296.7394  63.2932 15.50607296  4484"
      },
      "geometry": {
        "type": "Point",
        "coordinates": [
          -121.11546249231093,
          -29.497169758227066
        ]
      }
    },
    {
      "type": "Feature",
      "properties": {
        "norad_id": 66524,
        "name": "STARLINK-35687",
        "group": "last-30-days",
        "lat": 0.4632058032968628,
        "lon": 22.557513044391964,
        "alt_km": 443.43487806911617,
        "timestamp": "2025-12-18T07:01:53.339491+00:00",
        "meta_object_name": "STARLINK-35687",
        "meta_object_id": "2025-265J",
        "meta_epoch": "2025-12-17T03:01:25.884192",
        "meta_mean_motion": 15.40728606,
        "meta_eccentricity": 0.0001019,
        "meta_inclination": 43.0029,
        "meta_ra_of_asc_node": 28.7873,
        "meta_arg_of_pericenter": 263.2844,
        "meta_mean_anomaly": 96.7897,
        "meta_ephemeris_type": 0,
        "meta_classification_type": "U",
        "meta_norad_cat_id": 66524,
        "meta_element_set_no": 999,
        "meta_rev_at_epoch": 443,
        "meta_bstar": 0.00080546237,
        "meta_mean_motion_dot": 0.00033522,
        "meta_mean_motion_ddot": 0,
        "tle_line1": "1 66524U 25265J   25351.12599403  .00033522  00000+0  80546-3 0  9992",
        "tle_line2": "2 66524  43.0029  28.7873 0001019 263.2844  96.7897 15.40728606  4434"
      },
      "geometry": {
        "type": "Point",
        "coordinates": [
          22.557513044391964,
          0.4632058032968628
        ]
      }
    },
    {
      "type": "Feature",
      "properties": {
        "norad_id": 66525,
        "name": "STARLINK-35975",
        "group": "last-30-days",
        "lat": 31.54435976998147,
        "lon": 63.14190267889706,
        "alt_km": 439.7558986621316,
        "timestamp": "2025-12-18T07:01:53.339503+00:00",
        "meta_object_name": "STARLINK-35975",
        "meta_object_id": "2025-265K",
        "meta_epoch": "2025-12-18T00:00:02.000160",
        "meta_mean_motion": 15.40667231,
        "meta_eccentricity": 0.00012296,
        "meta_inclination": 43.0008,
        "meta_ra_of_asc_node": 23.6266,
        "meta_arg_of_pericenter": 257.3436,
        "meta_mean_anomaly": 326.0251,
        "meta_ephemeris_type": 0,
        "meta_classification_type": "U",
        "meta_norad_cat_id": 66525,
        "meta_element_set_no": 999,
        "meta_rev_at_epoch": 584,
        "meta_bstar": 0.0012759803,
        "meta_mean_motion_dot": 0.00053312,
        "meta_mean_motion_ddot": 0,
        "tle_line1": "1 66525U 25265K   25352.00002315  .00053312  00000+0  12760-2 0  9993",
        "tle_line2": "2 66525  43.0008  23.6266 0001229 257.3436 326.0251 15.40667231  5841"
      },
      "geometry": {
        "type": "Point",
        "coordinates": [
          63.14190267889706,
          31.54435976998147
        ]
      }
    },
    {
      "type": "Feature",
      "properties": {
        "norad_id": 66526,
        "name": "STARLINK-35932",
        "group": "last-30-days",
        "lat": 27.538223901079522,
        "lon": 167.70359870002005,
        "alt_km": 440.11993691084444,
        "timestamp": "2025-12-18T07:01:53.339517+00:00",
        "meta_object_name": "STARLINK-35932",
        "meta_object_id": "2025-265L",
        "meta_epoch": "2025-12-18T00:00:02.000160",
        "meta_mean_motion": 15.40664723,
        "meta_eccentricity": 0.00013174,
        "meta_inclination": 43.0007,
        "meta_ra_of_asc_node": 23.4156,
        "meta_arg_of_pericenter": 256.7211,
        "meta_mean_anomaly": 53.7337,
        "meta_ephemeris_type": 0,
        "meta_classification_type": "U",
        "meta_norad_cat_id": 66526,
        "meta_element_set_no": 999,
        "meta_rev_at_epoch": 573,
        "meta_bstar": 0.0016723337,
        "meta_mean_motion_dot": 0.00070116,
        "meta_mean_motion_ddot": 0,
        "tle_line1": "1 66526U 25265L   25352.00002315  .00070116  00000+0  16723-2 0  9998",
        "tle_line2": "2 66526  43.0007  23.4156 0001317 256.7211  53.7337 15.40664723  5739"
      },
      "geometry": {
        "type": "Point",
        "coordinates": [
          167.70359870002005,
          27.538223901079522
        ]
      }
    },
    {
      "type": "Feature",
      "properties": {
        "norad_id": 66527,
        "name": "STARLINK-35935",
        "group": "last-30-days",
        "lat": -28.029475272400003,
        "lon": -123.64275789181188,
        "alt_km": 426.37907001886106,
        "timestamp": "2025-12-18T07:01:53.339528+00:00",
        "meta_object_name": "STARLINK-35935",
        "meta_object_id": "2025-265M",
        "meta_epoch": "2025-12-17T13:02:11.634144",
        "meta_mean_motion": 15.48317783,
        "meta_eccentricity": 0.00013509,
        "meta_inclination": 43.0009,
        "meta_ra_of_asc_node": 25.887,
        "meta_arg_of_pericenter": 326.6436,
        "meta_mean_anomaly": 33.4338,
        "meta_ephemeris_type": 0,
        "meta_classification_type": "U",
        "meta_norad_cat_id": 66527,
        "meta_element_set_no": 999,
        "meta_rev_at_epoch": 450,
        "meta_bstar": -0.007612583,
        "meta_mean_motion_dot": -0.00392519,
        "meta_mean_motion_ddot": 0,
        "tle_line1": "1 66527U 25265M   25351.54319021 -.00392519  00000+0 -76126-2 0  9991",
        "tle_line2": "2 66527  43.0009  25.8870 0001350 326.6436  33.4338 15.48317783  4503"
      },
      "geometry": {
        "type": "Point",
        "coordinates": [
          -123.64275789181188,
          -28.029475272400003
        ]
      }
    },
    {
      "type": "Feature",
      "properties": {
        "norad_id": 66528,
        "name": "STARLINK-35928",
        "group": "last-30-days",
        "lat": -34.293651169249955,
        "lon": -111.47340941313252,
        "alt_km": 416.8068354548386,
        "timestamp": "2025-12-18T07:01:53.339539+00:00",
        "meta_object_name": "STARLINK-35928",
        "meta_object_id": "2025-265N",
        "meta_epoch": "2025-12-17T09:55:22.529280",
        "meta_mean_motion": 15.5058416,
        "meta_eccentricity": 0.00019733,
        "meta_inclination": 43.001,
        "meta_ra_of_asc_node": 26.6315,
        "meta_arg_of_pericenter": 279.1886,
        "meta_mean_anomaly": 80.8751,
        "meta_ephemeris_type": 0,
        "meta_classification_type": "U",
        "meta_norad_cat_id": 66528,
        "meta_element_set_no": 999,
        "meta_rev_at_epoch": 448,
        "meta_bstar": 0.0010038948,
        "meta_mean_motion_dot": 0.00059009,
        "meta_mean_motion_ddot": 0,
        "tle_line1": "1 66528U 25265N   25351.41345520  .00059009  00000+0  10039-2 0  9994",
        "tle_line2": "2 66528  43.0010  26.6315 0001973 279.1886  80.8751 15.50584160  4481"
      },
      "geometry": {
        "type": "Point",
        "coordinates": [
          -111.47340941313252,
          -34.293651169249955
        ]
      }
    },
    {
      "type": "Feature",
      "properties": {
        "norad_id": 66529,
        "name": "STARLINK-35933",
        "group": "last-30-days",
        "lat": 8.625849396663073,
        "lon": 31.395507713738123,
        "alt_km": 442.87705954311514,
        "timestamp": "2025-12-18T07:01:53.339551+00:00",
        "meta_object_name": "STARLINK-35933",
        "meta_object_id": "2025-265P",
        "meta_epoch": "2025-12-17T12:18:21.273408",
        "meta_mean_motion": 15.406613,
        "meta_eccentricity": 0.0001239,
        "meta_inclination": 43.0016,
        "meta_ra_of_asc_node": 26.5242,
        "meta_arg_of_pericenter": 252.9993,
        "meta_mean_anomaly": 107.0728,
        "meta_ephemeris_type": 0,
        "meta_classification_type": "U",
        "meta_norad_cat_id": 66529,
        "meta_element_set_no": 999,
        "meta_rev_at_epoch": 449,
        "meta_bstar": 0.0010773697,
        "meta_mean_motion_dot": 0.00044908,
        "meta_mean_motion_ddot": 0,
        "tle_line1": "1 66529U 25265P   25351.51274622  .00044908  00000+0  10774-2 0  9998",
        "tle_line2": "2 66529  43.0016  26.5242 0001239 252.9993 107.0728 15.40661300  4497"
      },
      "geometry": {
        "type": "Point",
        "coordinates": [
          31.395507713738123,
          8.625849396663073
        ]
      }
    }
  ]
}